NORAD_CAT_ID,OBJECT_NAME,OBJECT_TYPE,EPOCH,MEAN_MOTION,ECCENTRICITY,INCLINATION,RA_OF_ASC_NODE,ARG_OF_PERICENTER,MEAN_ANOMALY,BSTAR,MEAN_MOTION_DOT,MEAN_MOTION_DDOT,TLE_LINE0,TLE_LINE1,TLE_LINE2,SEMIMAJOR_AXIS,PERIOD,APOGEE,PERIGEE,DECAYED
54765.0,STARLINK-5466,PAYLOAD,2024-01-30 21:10:30,15.08841397,0.000132,53.2157,255.5476,89.6661,270.4482,4.1555e-05,3.74e-06,0.0,0 STARLINK-5466,1 54765U 22175H   24030.88229191  .00000374  00000-0  41555-4 0  9991,2 54765  53.2157 255.5476 0001320  89.6661 270.4482 15.08841397 63853,6917.876,95.437,540.654,538.828,0.0
54765.0,STARLINK-5466,PAYLOAD,2024-01-31 00:21:16,15.08842506,0.0001713,53.2167,254.9505,114.5492,245.5679,5.5111e-05,5.89e-06,0.0,0 STARLINK-5466,1 54765U 22175H   24031.01476944  .00000589  00000-0  55111-4 0  9998,2 54765  53.2167 254.9505 0001713 114.5492 245.5679 15.08842506 63872,6917.873,95.437,540.923,538.553,0.0
54765.0,STARLINK-5466,PAYLOAD,2024-02-01 00:12:03,15.08855618,0.0001808,53.2158,250.4886,100.4872,259.6324,-0.00028078,-4.756e-05,0.0,0 STARLINK-5466,1 54765U 22175H   24032.00836952 -.00004756  00000-0 -28078-3 0  9990,2 54765  53.2158 250.4886 0001808 100.4872 259.6324 15.08855618 61875,6917.833,95.437,540.948,538.447,0.0
54765.0,STARLINK-5466,PAYLOAD,2024-02-01 14:30:31,15.08804519,0.0001817,53.2185,247.8104,118.0955,242.0221,0.00052513,8.071e-05,0.0,0 STARLINK-5466,1 54765U 22175H   24032.60453068  .00008071  00000-0  52513-3 0  9992,2 54765  53.2185 247.8104 0001817 118.0955 242.0221 15.08804519 61961,6917.989,95.44,541.111,538.597,0.0
54765.0,STARLINK-5466,PAYLOAD,2024-02-02 00:02:49,15.08841993,0.0001837,53.2172,246.0253,119.485,240.6325,9.4488e-05,1.216e-05,0.0,0 STARLINK-5466,1 54765U 22175H   24033.00196705  .00001216  00000-0  94488-4 0  9991,2 54765  53.2172 246.0253 0001837 119.4850 240.6325 15.08841993 62028,6917.874,95.437,541.01,538.468,0.0
54765.0,STARLINK-5466,PAYLOAD,2024-02-02 19:07:28,15.08840598,0.00017,53.2161,242.4552,116.4829,243.6338,3.5048e-05,2.7e-06,0.0,0 STARLINK-5466,1 54765U 22175H   24033.79685209  .00000270  00000-0  35048-4 0  9995,2 54765  53.2161 242.4552 0001700 116.4829 243.6338 15.08840598 62140,6917.879,95.438,540.92,538.568,0.0
54765.0,STARLINK-5466,PAYLOAD,2024-02-02 20:42:51,15.08839003,0.0001478,53.2158,242.1583,107.6889,252.4265,2.6825e-05,1.39e-06,0.0,0 STARLINK-5466,1 54765U 22175H   24033.86309328  .00000139  00000-0  26825-4 0  9995,2 54765  53.2158 242.1583 0001478 107.6889 252.4265 15.08839003 64303,6917.883,95.438,540.771,538.726,0.0
54765.0,STARLINK-5466,PAYLOAD,2024-02-03 14:12:05,15.0884128,0.0001506,53.2159,238.8903,103.4074,256.7086,2.7734e-05,1.53e-06,0.0,0 STARLINK-5466,1 54765U 22175H   24034.59173306  .00000153  00000-0  27734-4 0  9997,2 54765  53.2159 238.8903 0001506 103.4074 256.7086 15.08841280 64414,6917.876,95.437,540.783,538.7,0.0
54765.0,STARLINK-5466,PAYLOAD,2024-02-03 20:33:38,15.08840896,0.000138,53.2162,237.7033,88.7019,271.4131,5.008e-05,5.09e-06,0.0,0 STARLINK-5466,1 54765U 22175H   24034.85669320  .00000509  00000-0  50080-4 0  9997,2 54765  53.2162 237.7033 0001380  88.7019 271.4131 15.08840896 62307,6917.878,95.437,540.697,538.788,0.0
54765.0,STARLINK-5466,PAYLOAD,2024-02-04 12:27:29,15.08838519,0.0001379,53.216,234.7296,87.5222,272.5928,7.8196e-05,9.57e-06,0.0,0 STARLINK-5466,1 54765U 22175H   24035.51909416  .00000957  00000-0  78196-4 0  9999,2 54765  53.2160 234.7296 0001379  87.5222 272.5928 15.08838519 64558,6917.885,95.438,540.704,538.796,0.0
54765.0,STARLINK-5466,PAYLOAD,2024-02-04 20:24:25,15.08840371,0.0001386,53.2162,233.2427,86.8968,273.2182,7.4528e-05,8.98e-06,0.0,0 STARLINK-5466,1 54765U 22175H   24035.85029363  .00000898  00000-0  74528-4 0  9999,2 54765  53.2162 233.2427 0001386  86.8968 273.2182 15.08840371 64602,6917.879,95.438,540.703,538.785,0.0
54765.0,STARLINK-5466,PAYLOAD,2024-02-05 12:18:17,15.08837987,0.0001438,53.2165,230.2692,92.087,268.0287,3.1172e-05,2.08e-06,0.0,0 STARLINK-5466,1 54765U 22175H   24036.51269733  .00000208  00000-0  31172-4 0  9993,2 54765  53.2165 230.2692 0001438  92.0870 268.0287 15.08837987 62554,6917.887,95.438,540.746,538.757,0.0
54765.0,STARLINK-5466,PAYLOAD,2024-02-05 20:15:12,15.08837394,0.0001403,53.2163,228.7821,90.9139,269.2014,2.063e-05,4e-07,0.0,0 STARLINK-5466,1 54765U 22175H   24036.84389850  .00000040  00000-0  20630-4 0  9993,2 54765  53.2163 228.7821 0001403  90.9139 269.2014 15.08837394 64752,6917.888,95.438,540.724,538.783,0.0
54765.0,STARLINK-5466,PAYLOAD,2024-02-06 20:06:00,15.08832688,0.0001309,53.2163,224.3216,93.403,266.7112,-1.4406e-05,-5.17e-06,0.0,0 STARLINK-5466,1 54765U 22175H   24037.83750421 -.00000517  00000-0 -14406-4 0  9994,2 54765  53.2163 224.3216 0001309  93.4030 266.7112 15.08832688 62755,6917.903,95.438,540.673,538.862,0.0
54765.0,STARLINK-5466,PAYLOAD,2024-02-07 11:59:52,15.08829952,0.0001229,53.2161,221.3478,94.3527,265.7606,3.0728e-05,2.01e-06,0.0,0 STARLINK-5466,1 54765U 22175H   24038.49990793  .00000201  00000-0  30728-4 0  9998,2 54765  53.2161 221.3478 0001229  94.3527 265.7606 15.08829952 65000,6917.911,95.438,540.626,538.926,0.0
54765.0,STARLINK-5466,PAYLOAD,2024-02-07 18:21:24,15.08832956,0.0001234,53.2162,220.1588,93.9931,266.1202,4.9875e-05,5.06e-06,0.0,0 STARLINK-5466,1 54765U 22175H   24038.76486686  .00000506  00000-0  49875-4 0  9990,2 54765  53.2162 220.1588 0001234  93.9931 266.1202 15.08832956 65049,6917.902,95.438,540.621,538.913,0.0
54765.0,STARLINK-5466,PAYLOAD,2024-02-08 05:29:05,15.0884328,0.0001268,53.2165,218.0766,91.7116,268.4022,9.993e-05,1.303e-05,0.0,0 STARLINK-5466,1 54765U 22175H   24039.22853991  .00001303  00000-0  99930-4 0  9992,2 54765  53.2165 218.0766 0001268  91.7116 268.4022 15.08843280 62969,6917.87,95.437,540.613,538.858,0.0
54765.0,STARLINK-5466,PAYLOAD,2024-02-08 15:01:24,15.08843369,0.0001221,53.2162,216.2919,90.5472,269.566,0.0001958,2.83e-05,0.0,0 STARLINK-5466,1 54765U 22175H   24039.62597610  .00002830  00000-0  19580-3 0  9997,2 54765  53.2162 216.2919 0001221  90.5472 269.5660 15.08843369 65171,6917.87,95.437,540.58,538.89,0.0
54765.0,STARLINK-5466,PAYLOAD,2024-02-08 18:12:10,15.08847276,0.0001265,53.2163,215.6973,91.8924,268.2213,0.00023462,3.449e-05,0.0,0 STARLINK-5466,1 54765U 22175H   24039.75845351  .00003449  00000-0  23462-3 0  9990,2 54765  53.2163 215.6973 0001265  91.8924 268.2213 15.08847276 65192,6917.858,95.437,540.598,538.848,0.0
54765.0,STARLINK-5466,PAYLOAD,2024-02-09 11:41:25,15.08842423,0.0001357,53.216,212.4272,79.8935,280.221,8.8757e-05,1.125e-05,0.0,0 STARLINK-5466,1 54765U 22175H   24040.48710087  .00001125  00000-0  88757-4 0  9997,2 54765  53.2160 212.4272 0001357  79.8935 280.2210 15.08842423 63150,6917.873,95.437,540.677,538.799,0.0
54765.0,STARLINK-5466,PAYLOAD,2024-02-10 11:32:12,15.08844999,0.0001436,53.2161,207.9652,87.1569,272.9587,-2.3438e-05,-6.61e-06,0.0,0 STARLINK-5466,1 54765U 22175H   24041.48070023 -.00000661  00000-0 -23438-4 0  9998,2 54765  53.2161 207.9652 0001436  87.1569 272.9587 15.08844999 65455,6917.865,95.437,540.724,538.737,0.0
54765.0,STARLINK-5466,PAYLOAD,2024-02-10 17:53:44,15.08843615,0.0001564,53.2173,206.7758,100.241,259.8759,2.395e-06,-2.5e-06,0.0,0 STARLINK-5466,1 54765U 22175H   24041.74565888 -.00000250  00000-0  23950-5 0  9998,2 54765  53.2173 206.7758 0001564 100.2410 259.8759 15.08843615 63341,6917.869,95.437,540.816,538.652,0.0
54765.0,STARLINK-5466,PAYLOAD,2024-02-11 14:33:45,15.08840072,0.0001523,53.2172,202.9112,99.1815,260.9349,5.9643e-05,6.61e-06,0.0,0 STARLINK-5466,1 54765U 22175H   24042.60677844  .00000661  00000-0  59643-4 0  9992,2 54765  53.2172 202.9112 0001523  99.1815 260.9349 15.08840072 65627,6917.88,95.438,540.799,538.692,0.0
54765.0,STARLINK-5466,PAYLOAD,2024-02-11 16:09:08,15.08841455,0.0001525,53.2172,202.614,98.4954,261.6211,7.1198e-05,8.45e-06,0.0,0 STARLINK-5466,1 54765U 22175H   24042.67301721  .00000845  00000-0  71198-4 0  9990,2 54765  53.2172 202.6140 0001525  98.4954 261.6211 15.08841455 65636,6917.876,95.437,540.796,538.686,0.0
54765.0,STARLINK-5466,PAYLOAD,2024-02-12 11:13:46,15.08840307,0.0001463,53.217,199.0464,94.7321,265.3839,4.0179e-05,3.52e-06,0.0,0 STARLINK-5466,1 54765U 22175H   24043.46789991  .00000352  00000-0  40179-4 0  9995,2 54765  53.2170 199.0464 0001463  94.7321 265.3839 15.08840307 63607,6917.879,95.438,540.757,538.732,0.0
54765.0,STARLINK-5466,PAYLOAD,2024-02-12 14:24:32,15.08839381,0.0001432,53.2169,198.4518,92.0094,268.1062,3.0011e-05,1.9e-06,0.0,0 STARLINK-5466,1 54765U 22175H   24043.60038105  .00000190  00000-0  30011-4 0  9999,2 54765  53.2169 198.4518 0001432  92.0094 268.1062 15.08839381 65771,6917.882,95.438,540.738,538.757,0.0
54765.0,STARLINK-5466,PAYLOAD,2024-02-12 17:35:19,15.08841568,0.0001393,53.2165,197.8572,87.0237,273.0915,4.5033e-05,4.29e-06,0.0,0 STARLINK-5466,1 54765U 22175H   24043.73285933  .00000429  00000-0  45033-4 0  9991,2 54765  53.2165 197.8572 0001393  87.0237 273.0915 15.08841568 65793,6917.876,95.437,540.704,538.777,0.0
54765.0,STARLINK-5466,PAYLOAD,2024-02-13 14:15:20,15.08838082,0.0001359,53.2163,193.9881,79.6297,280.4848,-3.5466e-05,-8.52e-06,0.0,0 STARLINK-5466,1 54765U 22175H   24044.59398611 -.00000852  00000-0 -35466-4 0  9995,2 54765  53.2163 193.9881 0001359  79.6297 280.4848 15.08838082 65925,6917.886,95.438,540.691,538.811,0.0
54765.0,STARLINK-5466,PAYLOAD,2024-02-13 19:01:28,15.08847877,0.0001334,53.2155,193.0974,87.8808,272.2337,9.573e-05,1.236e-05,0.0,0 STARLINK-5466,1 54765U 22175H   24044.79269574  .00001236  00000-0  95730-4 0  9997,2 54765  53.2155 193.0974 0001334  87.8808 272.2337 15.08847877 63801,6917.856,95.437,540.644,538.798,0.0
54765.0,STARLINK-5466,PAYLOAD,2024-02-14 02:58:25,15.0883622,0.0001267,53.2161,191.6082,85.9982,274.1155,2.6395e-05,1.32e-06,0.0,0 STARLINK-5466,1 54765U 22175H   24045.12390476  .00000132  00000-0  26395-4 0  9996,2 54765  53.2161 191.6082 0001267  85.9982 274.1155 15.08836220 63853,6917.892,95.438,540.633,538.88,0.0
